1 33591U 09005A   15196.44079641  .00000156  00000-0  10961-3 0  9994
2 33591  98.9913 146.3896 0015185  90.1409 270.1502 14.11956237331476
1 33591U 09005A   15197.50374153  .00000130  00000-0  95783-4 0  9996
2 33591  98.9914 147.4554 0015191  87.3746 272.9164 14.11956446331622
1 33591U 09005A   15198.49582325  .00000124  00000-0  92558-4 0  9997
2 33591  98.9915 148.4500 0015191  84.7918 275.4986 14.11956783331766
1 33591U 09005A   15199.48790460  .00000109  00000-0  84013-4 0  9998
2 33591  98.9915 149.4447 0015185  82.2042 278.0853 14.11957127331902
1 33591U 09005A   15200.47998564  .00000093  00000-0  75616-4 0  9996
2 33591  98.9916 150.4394 0015172  79.6117 280.6763 14.11957483332045
1 33591U 09005A   15201.47206649  .00000056  00000-0  54983-4 0  9996
2 33591  98.9917 151.4341 0015164  77.0145 283.2718 14.11957690332187
1 33591U 09005A   15202.46414710  .00000066  00000-0  60763-4 0  9990
2 33591  98.9918 152.4288 0015156  74.4225 285.8618 14.11958070332326
1 33591U 09005A   15202.81846155  .00000073  00000-0  64184-4 0  9990
2 33591  98.9918 152.7840 0015154  73.4948 286.7887 14.11958205332375
1 33591U 09005A   15203.88140474  .00000109  00000-0  84284-4 0  9992
2 33591  98.9918 153.8498 0015152  70.6990 289.5818 14.11958648332523
1 33591U 09005A   15204.87348470  .00000125  00000-0  92931-4 0  9994
2 33591  98.9919 154.8446 0015148  68.1223 292.1557 14.11958945332669
1 33591U 09005A   15205.65297593  .00000129  00000-0  94944-4 0  9990
2 33591  98.9919 155.6261 0015140  66.0982 294.1773 14.11959123332777
1 33591U 09005A   15206.85764378  .00000114  00000-0  86849-4 0  9992
2 33591  98.9920 156.8340 0015122  62.9676 297.3037 14.11959404332944
1 33591U 09005A   15207.49540887  .00000099  00000-0  78527-4 0  9996
2 33591  98.9921 157.4735 0015110  61.2926 298.9762 14.11959538333038
1 33591U 09005A   15208.48748762  .00000083  00000-0  69977-4 0  9990
2 33591  98.9922 158.4683 0015077  58.6589 301.6055 14.11959848333175
1 33591U 09005A   15209.40870332  .00000088  00000-0  72514-4 0  9998
2 33591  98.9923 159.3920 0015046  56.2453 304.0150 14.11960268333306
1 33591U 09005A   15210.47164436  .00000068  00000-0  61984-4 0  9995
2 33591  98.9924 160.4579 0015014  53.4408 306.8142 14.11960579333456
1 33591U 09005A   15211.46372246  .00000077  00000-0  66915-4 0  9994
2 33591  98.9925 161.4527 0014987  50.7816 309.4683 14.11960917333592
1 33591U 09005A   15212.45580028  .00000113  00000-0  86539-4 0  9998
2 33591  98.9926 162.4475 0014962  48.1540 312.0906 14.11961354333734
1 33591U 09005A   15213.51874062  .00000148  00000-0  10534-3 0  9999
2 33591  98.9927 163.5135 0014933  45.3649 314.8737 14.11961720333882
1 33591U 09005A   15214.43995535  .00000139  00000-0  10052-3 0  9995
2 33591  98.9927 164.4373 0014903  42.9526 317.2806 14.11961876334012
1 33591U 09005A   15215.50289499  .00000153  00000-0  10817-3 0  9994
2 33591  98.9928 165.5032 0014857  40.1375 320.0891 14.11962204334165
1 33591U 09005A   15216.49497164  .00000141  00000-0  10189-3 0  9992
2 33591  98.9928 166.4981 0014815  37.4917 322.7284 14.11962479334308
1 33591U 09005A   15217.48704784  .00000140  00000-0  10105-3 0  9998
2 33591  98.9929 167.4929 0014758  34.8017 325.4116 14.11962895334441
1 33591U 09005A   15218.47912383  .00000119  00000-0  89848-4 0  9991
2 33591  98.9930 168.4878 0014707  32.1390 328.0675 14.11963238334582
1 33591U 09005A   15219.47119956  .00000126  00000-0  93207-4 0  9999
2 33591  98.9931 169.4827 0014666  29.4650 330.7345 14.11963712334727
1 33591U 09005A   15220.25068751  .00000118  00000-0  88944-4 0  9996
2 33591  98.9932 170.2644 0014637  27.3836 332.8104 14.11963982334833
1 33591U 09005A   15221.52621289  .00000131  00000-0  95962-4 0  9991
2 33591  98.9934 171.5436 0014588  23.9604 336.2243 14.11964445335016
1 33591U 09005A   15222.51828793  .00000146  00000-0  10452-3 0  9996
2 33591  98.9934 172.5385 0014550  21.2879 338.8894 14.11964766335155
1 33591U 09005A   15223.51036269  .00000139  00000-0  10046-3 0  9997
2 33591  98.9935 173.5334 0014505  18.5938 341.5760 14.11964986335298
1 33591U 09005A   15224.43157467  .00000127  00000-0  94161-4 0  9991
2 33591  98.9936 174.4573 0014459  16.0535 344.1092 14.11965220335422
1 33591U 09005A   15225.49451123  .00000107  00000-0  82929-4 0  9991
2 33591  98.9937 175.5233 0014398  13.1567 346.9977 14.11965522335576
1 33591U 09005A   15226.48658509  .00000090  00000-0  73615-4 0  9991
2 33591  98.9938 176.5183 0014340  10.4169 349.7297 14.11965814335713
1 33591U 09005A   15227.54952117  .00000080  00000-0  68303-4 0  9998
2 33591  98.9940 177.5843 0014275   7.4894 352.6487 14.11966188335863
1 33591U 09005A   15228.47073207  .00000125  00000-0  93044-4 0  9995
2 33591  98.9941 178.5082 0014227   4.9108 355.2200 14.11966830335997
1 33591U 09005A   15229.46280543  .00000108  00000-0  83803-4 0  9991
2 33591  98.9943 179.5032 0014180   2.1481 357.9748 14.11967048336132
1 33591U 09005A   15229.88797968  .00000107  00000-0  83164-4 0  9990
2 33591  98.9943 179.9297 0014161   0.9528 359.1668 14.11967148335939
1 33591U 09005A   15230.45487863  .00000111  00000-0  85205-4 0  9998
2 33591  98.9944 180.4982 0014131 359.4076   0.7076 14.11967289336271
1 33591U 09005A   15230.88005284  .00000105  00000-0  82295-4 0  9997
2 33591  98.9945 180.9246 0014107 358.2290   1.8829 14.11967338336079
1 33591U 09005A   15231.44695170  .00000097  00000-0  77934-4 0  9993
2 33591  98.9945 181.4933 0014075 356.6723   3.4352 14.11967394336414
1 33591U 09005A   15232.50988668  .00000124  00000-0  92333-4 0  9999
2 33591  98.9946 182.5594 0014019 353.7016   6.3976 14.11967770336569
1 33591U 09005A   15233.50195905  .00000129  00000-0  95326-4 0  9994
2 33591  98.9947 183.5545 0013964 350.8849   9.2066 14.11968103336706
1 33591U 09005A   15234.91920476  .00000118  00000-0  89128-4 0  9990
2 33591  98.9949 184.9760 0013888 346.7887  13.2919 14.11968624336646
1 33591U 09005A   15235.91127650  .00000106  00000-0  82483-4 0  9998
2 33591  98.9950 185.9711 0013832 343.9508  16.1223 14.11969006336783
1 33591U 09005A   15236.90334811  .00000091  00000-0  74212-4 0  9991
2 33591  98.9951 186.9661 0013774 341.1095  18.9563 14.11969335336923
1 33591U 09005A   15238.53317977  .00000089  00000-0  73086-4 0  9991
2 33591  98.9954 188.6010 0013690 336.4654  23.5889 14.11969861337410
1 33591U 09005A   15239.45438876  .00000097  00000-0  77529-4 0  9990
2 33591  98.9955 189.5251 0013640 333.8494  26.1987 14.11970160337542
1 33591U 09005A   15239.87956200  .00000123  00000-0  91630-4 0  9991
2 33591  98.9956 189.9516 0013616 332.6336  27.4117 14.11970420337342
1 33591U 09005A   15240.16301083  .00000137  00000-0  99770-4 0  9996
2 33591  98.9956 190.2359 0013596 331.8274  28.2161 14.11970569337646
1 33591U 09005A   15240.87163287  .00000139  00000-0  10061-3 0  9993
2 33591  98.9957 190.9468 0013570 329.7558  30.2828 14.11970763337489
1 33591U 09005A   15241.50939272  .00000131  00000-0  96522-4 0  9998
2 33591  98.9958 191.5865 0013533 327.9477  32.0870 14.11970874337836
1 33591U 09005A   15241.86370363  .00000131  00000-0  96327-4 0  9990
2 33591  98.9958 191.9419 0013524 326.8960  33.1364 14.11970991337627
1 33591U 09005A   15242.50146325  .00000116  00000-0  88056-4 0  9994
2 33591  98.9959 192.5817 0013492 325.0388  34.9896 14.11971100337976
1 33591U 09005A   15242.85577408  .00000110  00000-0  85065-4 0  9993
2 33591  98.9960 192.9371 0013485 323.9821  36.0440 14.11971212337767
1 33591U 09005A   15243.49353352  .00000114  00000-0  86783-4 0  9996
2 33591  98.9960 193.5769 0013453 322.1060  37.9163 14.11971448338119
1 33591U 09005A   15243.77698210  .00000111  00000-0  85140-4 0  9995
2 33591  98.9961 193.8612 0013444 321.2466  38.7740 14.11971556337894
1 33591U 09005A   15244.48560354  .00000115  00000-0  87270-4 0  9991
2 33591  98.9962 194.5721 0013412 319.1553  40.8612 14.11971865338258
1 33591U 09005A   15244.83991424  .00000106  00000-0  82714-4 0  9994
2 33591  98.9962 194.9275 0013396 318.0975  41.9170 14.11971986338045
1 33591U 09005A   15245.47767347  .00000093  00000-0  75321-4 0  9991
2 33591  98.9963 195.5673 0013372 316.2130  43.7979 14.11972177338390
1 33591U 09005A   15245.83198408  .00000096  00000-0  77164-4 0  9997
2 33591  98.9964 195.9228 0013360 315.1335  44.8755 14.11972341338187
1 33591U 09005A   15246.54060532  .00000102  00000-0  80478-4 0  9992
2 33591  98.9965 196.6337 0013326 313.0476  46.9578 14.11972628338546
1 33591U 09005A   15246.89491592  .00000102  00000-0  80210-4 0  9998
2 33591  98.9966 196.9891 0013310 311.9935  48.0102 14.11972759338333
1 33591U 09005A   15246.89491592  .00000102  00000-0  80210-4 0  9998
2 33591  98.9966 196.9891 0013310 311.9935  48.0102 14.11972759338591
1 33591U 09005A   15247.53267497  .00000113  00000-0  86207-4 0  9999
2 33591  98.9967 197.6290 0013276 310.1400  49.8608 14.11972999338688
1 33591U 09005A   15247.88698556  .00000113  00000-0  86273-4 0  9994
2 33591  98.9967 197.9844 0013258 309.1067  50.8925 14.11973103338472
1 33591U 09005A   15248.45388247  .00000123  00000-0  91776-4 0  9996
2 33591  98.9968 198.5532 0013224 307.4437  52.5530 14.11973287338811
1 33591U 09005A   15248.94991713  .00000133  00000-0  97636-4 0  9990
2 33591  98.9969 199.0509 0013207 305.9518  54.0427 14.11973466338626
1 33591U 09005A   15249.44595182  .00000136  00000-0  99269-4 0  9993
2 33591  98.9970 199.5485 0013186 304.4946  55.4979 14.11973600338954
1 33591U 09005A   15249.87112429  .00000140  00000-0  10123-3 0  9995
2 33591  98.9970 199.9751 0013177 303.2001  56.7906 14.11973730338759
1 33591U 09005A   15250.50888294  .00000145  00000-0  10386-3 0  9993
2 33591  98.9971 200.6150 0013164 301.2835  58.7046 14.11973927339107
1 33591U 09005A   15250.86319325  .00000143  00000-0  10298-3 0  9996
2 33591  98.9971 200.9704 0013157 300.2154  59.7714 14.11974051338897
